[{"OBJECT_NAME":"HAWK-2C","OBJECT_ID":"2021-006CT","EPOCH":"2026-03-09T16:13:22.454976","MEAN_MOTION":15.33286436,"ECCENTRICITY":0.0006943,"INCLINATION":97.2417,"RA_OF_ASC_NODE":114.9961,"ARG_OF_PERICENTER":184.0877,"MEAN_ANOMALY":176.031,"EPHEMERIS_TYPE":0,"CLASSIFICATION_TYPE":"U","NORAD_CAT_ID":47502,"ELEMENT_SET_NO":999,"REV_AT_EPOCH":28424,"BSTAR":0.00025492914,"MEAN_MOTION_DOT":8.129e-5,"MEAN_MOTION_DDOT":0},{"OBJECT_NAME":"STARLINK-31104","OBJECT_ID":"2023-211F","EPOCH":"2026-03-09T22:00:01.999584","MEAN_MOTION":15.31575296,"ECCENTRICITY":0.00050217,"INCLINATION":42.9977,"RA_OF_ASC_NODE":83.0074,"ARG_OF_PERICENTER":122.078,"MEAN_ANOMALY":131.1687,"EPHEMERIS_TYPE":0,"CLASSIFICATION_TYPE":"U","NORAD_CAT_ID":58672,"ELEMENT_SET_NO":999,"REV_AT_EPOCH":574,"BSTAR":0.0039372727,"MEAN_MOTION_DOT":0.00124398,"MEAN_MOTION_DDOT":0}]
